NORAD_CAT_ID,OBJECT_NAME,OBJECT_TYPE,EPOCH,MEAN_MOTION,ECCENTRICITY,INCLINATION,RA_OF_ASC_NODE,ARG_OF_PERICENTER,MEAN_ANOMALY,BSTAR,MEAN_MOTION_DOT,MEAN_MOTION_DDOT,TLE_LINE0,TLE_LINE1,TLE_LINE2,SEMIMAJOR_AXIS,PERIOD,APOGEE,PERIGEE,DECAYED
53904.0,STARLINK-4787,PAYLOAD,2023-10-13 18:23:39,15.08844943,0.0001988,53.218,304.8743,84.2217,275.9002,0.00014997,2.1e-05,0.0,0 STARLINK-4787,1 53904U 22119U   23286.76642995  .00002100  00000-0  14997-3 0  9991,2 53904  53.2180 304.8743 0001988  84.2217 275.9002 15.08844943 59152,6917.865,95.437,541.106,538.355,0.0
53904.0,STARLINK-4787,PAYLOAD,2023-10-13 23:09:49,15.08837706,0.0001663,53.2164,303.9827,83.2536,276.8645,6.1835e-05,6.96e-06,0.0,0 STARLINK-4787,1 53904U 22119U   23286.96515264  .00000696  00000-0  61835-4 0  9993,2 53904  53.2164 303.9827 0001663  83.2536 276.8645 15.08837706 58768,6917.887,95.438,540.903,538.602,0.0
53904.0,STARLINK-4787,PAYLOAD,2023-10-14 10:17:30,15.0885328,0.0001932,53.2177,301.9004,87.4237,272.6976,-8.5978e-05,-1.657e-05,0.0,0 STARLINK-4787,1 53904U 22119U   23287.42882280 -.00001657  00000-0 -85978-4 0  9994,2 53904  53.2177 301.9004 0001932  87.4237 272.6976 15.08853280 58834,6917.84,95.437,541.041,538.368,0.0
53904.0,STARLINK-4787,PAYLOAD,2023-10-14 18:14:27,15.08841002,0.0001931,53.2178,300.4133,87.4234,272.6979,-6.1774e-05,-1.271e-05,0.0,0 STARLINK-4787,1 53904U 22119U   23287.76003495 -.00001271  00000-0 -61774-4 0  9994,2 53904  53.2178 300.4133 0001931  87.4234 272.6979 15.08841002 58885,6917.877,95.437,541.078,538.406,0.0
53904.0,STARLINK-4787,PAYLOAD,2023-10-14 23:00:37,15.08825781,0.0001681,53.2182,299.5223,95.2901,264.8283,-2.2994e-05,-6.54e-06,0.0,0 STARLINK-4787,1 53904U 22119U   23287.95876478 -.00000654  00000-0 -22994-4 0  9999,2 53904  53.2182 299.5223 0001681  95.2901 264.8283 15.08825781 58919,6917.924,95.438,540.952,538.626,0.0
53904.0,STARLINK-4787,PAYLOAD,2023-10-15 08:32:55,15.08835613,0.0001577,53.2173,297.7365,100.4255,259.6915,3.8165e-06,-2.27e-06,0.0,0 STARLINK-4787,1 53904U 22119U   23288.35619956 -.00000227  00000-0  38165-5 0  9993,2 53904  53.2173 297.7365 0001577 100.4255 259.6915 15.08835613 58976,6917.894,95.438,540.85,538.668,0.0
53904.0,STARLINK-4787,PAYLOAD,2023-10-16 06:48:19,15.08846675,0.0001578,53.216,293.5736,91.6297,268.4876,0.00030364,4.549e-05,0.0,0 STARLINK-4787,1 53904U 22119U   23289.28355498  .00004549  00000-0  30364-3 0  9995,2 53904  53.2160 293.5736 0001578  91.6297 268.4876 15.08846675 59117,6917.86,95.437,540.817,538.633,0.0
53904.0,STARLINK-4787,PAYLOAD,2023-10-17 09:49:52,15.08851341,0.0001592,53.2155,288.5168,100.1813,259.9359,0.00034618,5.227e-05,0.0,0 STARLINK-4787,1 53904U 22119U   23290.40963315  .00005227  00000-0  34618-3 0  9994,2 53904  53.2155 288.5168 0001592 100.1813 259.9359 15.08851341 59285,6917.846,95.437,540.812,538.609,0.0
53904.0,STARLINK-4787,PAYLOAD,2023-10-18 00:08:20,15.08839361,0.0001679,53.2152,285.8373,108.5027,251.6148,7.1863e-05,8.56e-06,0.0,0 STARLINK-4787,1 53904U 22119U   23291.00579626  .00000856  00000-0  71863-4 0  9996,2 53904  53.2152 285.8373 0001679 108.5027 251.6148 15.08839361 59378,6917.882,95.438,540.909,538.586,0.0
53904.0,STARLINK-4787,PAYLOAD,2023-10-18 06:29:53,15.0884456,0.0001458,53.2155,284.651,96.5684,263.5474,8.0884e-05,1e-05,0.0,0 STARLINK-4787,1 53904U 22119U   23291.27075497  .00001000  00000-0  80884-4 0  9997,2 53904  53.2155 284.6510 0001458  96.5684 263.5474 15.08844560 59833,6917.866,95.437,540.74,538.723,0.0
53904.0,STARLINK-4787,PAYLOAD,2023-10-19 04:45:17,15.08848131,0.000151,53.2163,280.4901,98.0083,262.108,0.00017842,2.553e-05,0.0,0 STARLINK-4787,1 53904U 22119U   23292.19811369  .00002553  00000-0  17842-3 0  9992,2 53904  53.2163 280.4901 0001510  98.0083 262.1080 15.08848131 59554,6917.856,95.437,540.765,538.676,0.0
53904.0,STARLINK-4787,PAYLOAD,2023-10-19 06:20:40,15.08849151,0.00015,53.2161,280.1938,97.551,262.5653,0.00025603,3.79e-05,0.0,0 STARLINK-4787,1 53904U 22119U   23292.26435341  .00003790  00000-0  25603-3 0  9990,2 53904  53.2161 280.1938 0001500  97.5510 262.5653 15.08849151 59987,6917.852,95.437,540.755,538.68,0.0
53904.0,STARLINK-4787,PAYLOAD,2023-10-20 07:46:50,15.08849894,0.0001613,53.2178,275.4367,96.1777,263.9399,0.00029968,4.486e-05,0.0,0 STARLINK-4787,1 53904U 22119U   23293.32419372  .00004486  00000-0  29968-3 0  9995,2 53904  53.2178 275.4367 0001613  96.1777 263.9399 15.08849894 59721,6917.85,95.437,540.831,538.599,0.0
53904.0,STARLINK-4787,PAYLOAD,2023-10-21 02:51:28,15.0883256,0.0002027,53.2179,271.8664,89.4061,270.7163,1.7223e-05,-1.4e-07,0.0,0 STARLINK-4787,1 53904U 22119U   23294.11908153 -.00000014  00000-0  17223-4 0  9999,2 53904  53.2179 271.8664 0002027  89.4061 270.7163 15.08832560 59843,6917.903,95.438,541.17,538.366,0.0
53904.0,STARLINK-4787,PAYLOAD,2023-10-21 07:37:38,15.08834955,0.0001607,53.2168,270.9792,106.9596,253.1573,2.2477e-05,7e-07,0.0,0 STARLINK-4787,1 53904U 22119U   23294.31780218  .00000070  00000-0  22477-4 0  9999,2 53904  53.2168 270.9792 0001607 106.9596 253.1573 15.08834955 60295,6917.896,95.438,540.873,538.649,0.0
53904.0,STARLINK-4787,PAYLOAD,2023-10-21 15:34:33,15.08842917,0.0001516,53.217,269.4897,94.6351,265.4814,0.00010366,1.362e-05,0.0,0 STARLINK-4787,1 53904U 22119U   23294.64899956  .00001362  00000-0  10366-3 0  9993,2 53904  53.2170 269.4897 0001516  94.6351 265.4814 15.08842917 59927,6917.871,95.437,540.785,538.688,0.0
53904.0,STARLINK-4787,PAYLOAD,2023-10-22 05:53:01,15.08857175,0.000157,53.2168,266.8109,88.6589,271.4583,0.00054019,8.324e-05,0.0,0 STARLINK-4787,1 53904U 22119U   23295.24515599  .00008324  00000-0  54019-3 0  9996,2 53904  53.2168 266.8109 0001570  88.6589 271.4583 15.08857175 60011,6917.828,95.436,540.779,538.607,0.0
53904.0,STARLINK-4787,PAYLOAD,2023-10-22 15:25:20,15.08839945,0.0001858,53.2183,265.0266,82.5695,277.5508,0.00021827,3.187e-05,0.0,0 STARLINK-4787,1 53904U 22119U   23295.64260136  .00003187  00000-0  21827-3 0  9997,2 53904  53.2183 265.0266 0001858  82.5695 277.5508 15.08839945 60078,6917.881,95.438,541.031,538.46,0.0
53904.0,STARLINK-4787,PAYLOAD,2023-10-23 04:08:26,15.08832729,0.0001457,53.2158,262.6478,82.2646,277.8512,-2.8773e-05,-7.46e-06,0.0,0 STARLINK-4787,1 53904U 22119U   23296.17252609 -.00000746  00000-0 -28773-4 0  9990,2 53904  53.2158 262.6478 0001457  82.2646 277.8512 15.08832729 60156,6917.903,95.438,540.776,538.76,0.0
53904.0,STARLINK-4787,PAYLOAD,2023-10-24 03:59:13,15.08855518,0.0001484,53.2153,258.1866,81.8275,278.2885,0.0010951,0.00017191,0.0,0 STARLINK-4787,1 53904U 22119U   23297.16612666  .00017191  00000-0  10951-2 0  9990,2 53904  53.2153 258.1866 0001484  81.8275 278.2885 15.08855518 60301,6917.833,95.437,540.725,538.671,0.0
53904.0,STARLINK-4787,PAYLOAD,2023-10-24 07:09:59,15.08860496,0.0001492,53.2153,257.5919,82.3064,277.8097,0.0010981,0.00017241,0.0,0 STARLINK-4787,1 53904U 22119U   23297.29860485  .00017241  00000-0  10981-2 0  9997,2 53904  53.2153 257.5919 0001492  82.3064 277.8097 15.08860496 60743,6917.818,95.436,540.715,538.651,0.0
53904.0,STARLINK-4787,PAYLOAD,2023-10-25 07:00:46,15.08855638,0.0001619,53.2169,253.1305,93.5749,266.5428,0.0004424,6.763e-05,0.0,0 STARLINK-4787,1 53904U 22119U   23298.29220100  .00006763  00000-0  44240-3 0  9995,2 53904  53.2169 253.1305 0001619  93.5749 266.5428 15.08855638 60471,6917.833,95.437,540.818,538.578,0.0
53904.0,STARLINK-4787,PAYLOAD,2023-10-26 03:40:47,15.08843757,0.0001633,53.2169,249.266,86.0062,274.1117,0.00033425,5.036e-05,0.0,0 STARLINK-4787,1 53904U 22119U   23299.15332414  .00005036  00000-0  33425-3 0  9998,2 53904  53.2169 249.2660 0001633  86.0062 274.1117 15.08843757 60606,6917.869,95.437,540.864,538.604,0.0
53904.0,STARLINK-4787,PAYLOAD,2023-10-26 05:16:10,15.08846119,0.000167,53.2172,248.9684,87.1359,272.9824,0.00043158,6.588e-05,0.0,0 STARLINK-4787,1 53904U 22119U   23299.21956404  .00006588  00000-0  43158-3 0  9993,2 53904  53.2172 248.9684 0001670  87.1359 272.9824 15.08846119 61038,6917.862,95.437,540.882,538.571,0.0
53904.0,STARLINK-4787,PAYLOAD,2023-10-27 06:42:19,15.08872164,0.0001639,53.2185,244.2115,87.636,272.482,0.0010369,0.00016267,0.0,0 STARLINK-4787,1 53904U 22119U   23300.27939637  .00016267  00000-0  10369-2 0  9993,2 53904  53.2185 244.2115 0001639  87.6360 272.4820 15.08872164 60772,6917.782,95.436,540.781,538.513,0.0
53904.0,STARLINK-4787,PAYLOAD,2023-10-27 13:03:52,15.08850468,0.0002145,53.218,243.0193,88.3196,271.8042,0.00026076,3.865e-05,0.0,0 STARLINK-4787,1 53904U 22119U   23300.54435873  .00003865  00000-0  26076-3 0  9999,2 53904  53.2180 243.0193 0002145  88.3196 271.8042 15.08850468 61232,6917.848,95.437,541.197,538.23,0.0
53904.0,STARLINK-4787,PAYLOAD,2023-10-27 21:00:48,15.08829916,0.00015,53.2178,241.5371,80.2606,279.8556,-0.00039654,-6.592e-05,0.0,0 STARLINK-4787,1 53904U 22119U   23300.87556389 -.00006592  00000-0 -39654-3 0  9999,2 53904  53.2178 241.5371 0001500  80.2606 279.8556 15.08829916 61288,6917.911,95.438,540.814,538.739,0.0
53904.0,STARLINK-4787,PAYLOAD,2023-10-28 00:11:35,15.08830257,0.0001535,53.218,240.9427,87.1711,272.9457,-0.0002849,-4.818e-05,0.0,0 STARLINK-4787,1 53904U 22119U   23301.00804412 -.00004818  00000-0 -28490-3 0  9993,2 53904  53.2180 240.9427 0001535  87.1711 272.9457 15.08830257 60886,6917.91,95.438,540.837,538.713,0.0
53904.0,STARLINK-4787,PAYLOAD,2023-10-28 12:54:40,15.08834394,0.0001603,53.2181,238.5641,91.4294,268.6882,0.00012051,1.63e-05,0.0,0 STARLINK-4787,1 53904U 22119U   23301.53796812  .00001630  00000-0  12051-3 0  9998,2 53904  53.2181 238.5641 0001603  91.4294 268.6882 15.08834394 61384,6917.898,95.438,540.871,538.654,0.0
53904.0,STARLINK-4787,PAYLOAD,2023-10-29 03:13:08,15.0885634,0.0001501,53.217,235.8857,86.6568,273.4596,0.0010548,0.00016546,0.0,0 STARLINK-4787,1 53904U 22119U   23302.13412687  .00016546  00000-0  10548-2 0  9990,2 53904  53.2170 235.8857 0001501  86.6568 273.4596 15.08856340 61053,6917.83,95.437,540.734,538.657,0.0
